*******************************************************************************
Ephemeris / WWW_USER Fri Mar  7 10:11:10 2025 Pasadena, USA      / Horizons    
*******************************************************************************
Target body name: (2018 PM20)                     {source: JPL#2}
Center body name: Earth (399)                     {source: DE441}
Center-site name: Mauna Kea
*******************************************************************************
Start time      : A.D. 2018-Sep-25 04:25:00.0000 UT      
Stop  time      : A.D. 2018-Sep-25 16:02:00.0000 UT      
Step-size       : 1 minutes
*******************************************************************************
Target pole/equ : undefined
Target radii    : undefined                                                    
Center geodetic : 204.5278, 19.8260847, 4.21024   {E-lon(deg),Lat(deg),Alt(km)}
Center cylindric: 204.5278, 6006.35451, 2151.0229 {E-lon(deg),Dxy(km),Dz(km)}
Center pole/equ : ITRF93                          {East-longitude positive}
Center radii    : 6378.137, 6378.137, 6356.752 km {Equator_a, b, pole_c}       
Target primary  : Sun
Vis. interferer : MOON (R_eq= 1737.400) km        {source: DE441}
Rel. light bend : Sun                             {source: DE441}
Rel. lght bnd GM: 1.3271E+11 km^3/s^2                                          
Small-body perts: Yes                             {source: SB441-N16}
Atmos refraction: NO (AIRLESS)
RA format       : HMS
Time format     : CAL 
Calendar mode   : Mixed Julian/Gregorian
RTS-only print  : NO       
EOP file        : eop.250306.p250602                                           
EOP coverage    : DATA-BASED 1962-JAN-20 TO 2025-MAR-06. PREDICTS-> 2025-JUN-01
Units conversion: 1 au= 149597870.700 km, c= 299792.458 km/s, 1 day= 86400.0 s 
Table cut-offs 1: Elevation (-90.0deg=NO ),Airmass (>38.000=NO), Daylight (YES)
Table cut-offs 2: Solar elongation (  0.0,180.0=NO ),Local Hour Angle( 0.0=NO )
Table cut-offs 3: RA/DEC angular rate (     0.0=NO )                           
*******************************************************************************
Initial IAU76/J2000 heliocentric ecliptic osculating elements (au, days, deg.):
  EPOCH=  2458343.5 ! 2018-Aug-13.00 (TDB)         Residual RMS= .089003       
   EC= .5103595829140648   QR= .9783824475456468   TP= 2458372.5495769856      
   OM= 141.729241004527    W=  213.3086535448706   IN= 3.923256746335003       
  Equivalent ICRF heliocentric cartesian coordinates (au, au/d):
   X= 8.000585561647119E-01  Y=-6.125483166279821E-01  Z=-2.634816273742420E-01
  VX= 9.656077190407949E-03 VY= 1.708944028933422E-02 VZ= 5.904161592396531E-03
Asteroid physical parameters (km, seconds, rotational period in hours):        
   GM= n.a.                RAD= n.a.               ROTPER= n.a.                
   H= 26.3                 G= .150                 B-V= n.a.                   
                           ALBEDO= n.a.            STYP= n.a.                  
*******************************************************************************
 Date__(UT)__HR:MN     R.A._________(ICRF)_________DEC
******************************************************
$$SOE
 2018-Sep-25 04:25 Cm  06 40 47.770467 +07 15 08.23185
 2018-Sep-25 04:26 Cm  06 40 47.830035 +07 15 08.27696
 2018-Sep-25 04:27 Cm  06 40 47.889607 +07 15 08.32218
 2018-Sep-25 04:28 Cm  06 40 47.949182 +07 15 08.36749
 2018-Sep-25 04:29 Cm  06 40 48.008761 +07 15 08.41291
 2018-Sep-25 04:30 Cm  06 40 48.068343 +07 15 08.45842
 2018-Sep-25 04:31 Cm  06 40 48.127928 +07 15 08.50404
 2018-Sep-25 04:32 Cm  06 40 48.187515 +07 15 08.54976
 2018-Sep-25 04:33 Cm  06 40 48.247105 +07 15 08.59558
 2018-Sep-25 04:34 Cm  06 40 48.306696 +07 15 08.64150
 2018-Sep-25 04:35 Cm  06 40 48.366290 +07 15 08.68752
 2018-Sep-25 04:36 Cm  06 40 48.425885 +07 15 08.73365
 2018-Sep-25 04:37 Cm  06 40 48.485482 +07 15 08.77987
 2018-Sep-25 04:38 Nm  06 40 48.545080 +07 15 08.82620
 2018-Sep-25 04:39 Nm  06 40 48.604678 +07 15 08.87262
 2018-Sep-25 04:40 Nm  06 40 48.664278 +07 15 08.91915
 2018-Sep-25 04:41 Nm  06 40 48.723877 +07 15 08.96578
 2018-Sep-25 04:42 Nm  06 40 48.783477 +07 15 09.01252
 2018-Sep-25 04:43 Nm  06 40 48.843077 +07 15 09.05935
 2018-Sep-25 04:44 Nm  06 40 48.902677 +07 15 09.10628
 2018-Sep-25 04:45 Nm  06 40 48.962276 +07 15 09.15332
 2018-Sep-25 04:46 Nm  06 40 49.021874 +07 15 09.20046
 2018-Sep-25 04:47 Nm  06 40 49.081472 +07 15 09.24770
 2018-Sep-25 04:48 Nm  06 40 49.141068 +07 15 09.29504
 2018-Sep-25 04:49 Nm  06 40 49.200662 +07 15 09.34248
 2018-Sep-25 04:50 Nm  06 40 49.260255 +07 15 09.39002
 2018-Sep-25 04:51 Nm  06 40 49.319846 +07 15 09.43766
 2018-Sep-25 04:52 Nm  06 40 49.379434 +07 15 09.48541
 2018-Sep-25 04:53 Nm  06 40 49.439020 +07 15 09.53326
 2018-Sep-25 04:54 Nm  06 40 49.498604 +07 15 09.58120
 2018-Sep-25 04:55 Nm  06 40 49.558184 +07 15 09.62925
 2018-Sep-25 04:56 Nm  06 40 49.617761 +07 15 09.67740
 2018-Sep-25 04:57 Nm  06 40 49.677335 +07 15 09.72565
 2018-Sep-25 04:58 Nm  06 40 49.736905 +07 15 09.77401
 2018-Sep-25 04:59 Nm  06 40 49.796472 +07 15 09.82246
 2018-Sep-25 05:00 Nm  06 40 49.856034 +07 15 09.87102
 2018-Sep-25 05:01 Nm  06 40 49.915591 +07 15 09.91967
 2018-Sep-25 05:02 Nm  06 40 49.975145 +07 15 09.96843
 2018-Sep-25 05:03 Nm  06 40 50.034693 +07 15 10.01729
 2018-Sep-25 05:04 Am  06 40 50.094236 +07 15 10.06625
 2018-Sep-25 05:05 Am  06 40 50.153774 +07 15 10.11531
 2018-Sep-25 05:06 Am  06 40 50.213306 +07 15 10.16447
 2018-Sep-25 05:07 Am  06 40 50.272832 +07 15 10.21373
 2018-Sep-25 05:08 Am  06 40 50.332353 +07 15 10.26309
 2018-Sep-25 05:09 Am  06 40 50.391867 +07 15 10.31255
 2018-Sep-25 05:10 Am  06 40 50.451374 +07 15 10.36212
 2018-Sep-25 05:11 Am  06 40 50.510875 +07 15 10.41178
 2018-Sep-25 05:12 Am  06 40 50.570368 +07 15 10.46155
 2018-Sep-25 05:13 Am  06 40 50.629855 +07 15 10.51141
 2018-Sep-25 05:14 Am  06 40 50.689334 +07 15 10.56138
 2018-Sep-25 05:15 Am  06 40 50.748805 +07 15 10.61145
 2018-Sep-25 05:16 Am  06 40 50.808268 +07 15 10.66161
 2018-Sep-25 05:17 Am  06 40 50.867723 +07 15 10.71188
 2018-Sep-25 05:18 Am  06 40 50.927170 +07 15 10.76225
 2018-Sep-25 05:19 Am  06 40 50.986607 +07 15 10.81271
 2018-Sep-25 05:20 Am  06 40 51.046036 +07 15 10.86328
 2018-Sep-25 05:21 Am  06 40 51.105456 +07 15 10.91395
 2018-Sep-25 05:22 Am  06 40 51.164866 +07 15 10.96472
 2018-Sep-25 05:23 Am  06 40 51.224267 +07 15 11.01558
 2018-Sep-25 05:24 Am  06 40 51.283658 +07 15 11.06655
 2018-Sep-25 05:25 Am  06 40 51.343039 +07 15 11.11762
 2018-Sep-25 05:26 Am  06 40 51.402409 +07 15 11.16878
 2018-Sep-25 05:27 Am  06 40 51.461769 +07 15 11.22005
 2018-Sep-25 05:28 Am  06 40 51.521118 +07 15 11.27141
 2018-Sep-25 05:29 Am  06 40 51.580456 +07 15 11.32288
 2018-Sep-25 05:30  m  06 40 51.639782 +07 15 11.37444
 2018-Sep-25 05:31  m  06 40 51.699097 +07 15 11.42610
 2018-Sep-25 05:32  m  06 40 51.758400 +07 15 11.47787
 2018-Sep-25 05:33  m  06 40 51.817692 +07 15 11.52973
 2018-Sep-25 05:34  m  06 40 51.876971 +07 15 11.58169
 2018-Sep-25 05:35  m  06 40 51.936237 +07 15 11.63375
 2018-Sep-25 05:36  m  06 40 51.995491 +07 15 11.68590
 2018-Sep-25 05:37  m  06 40 52.054732 +07 15 11.73816
 2018-Sep-25 05:38  m  06 40 52.113960 +07 15 11.79051
 2018-Sep-25 05:39  m  06 40 52.173174 +07 15 11.84297
 2018-Sep-25 05:40  m  06 40 52.232374 +07 15 11.89552
 2018-Sep-25 05:41  m  06 40 52.291561 +07 15 11.94817
 2018-Sep-25 05:42  m  06 40 52.350734 +07 15 12.00091
 2018-Sep-25 05:43  m  06 40 52.409892 +07 15 12.05376
 2018-Sep-25 05:44  m  06 40 52.469036 +07 15 12.10670
 2018-Sep-25 05:45  m  06 40 52.528165 +07 15 12.15974
 2018-Sep-25 05:46  m  06 40 52.587278 +07 15 12.21288
 2018-Sep-25 05:47  m  06 40 52.646377 +07 15 12.26612
 2018-Sep-25 05:48  m  06 40 52.705460 +07 15 12.31945
 2018-Sep-25 05:49  m  06 40 52.764527 +07 15 12.37288
 2018-Sep-25 05:50  m  06 40 52.823579 +07 15 12.42641
 2018-Sep-25 05:51  m  06 40 52.882614 +07 15 12.48003
 2018-Sep-25 05:52  m  06 40 52.941632 +07 15 12.53375
 2018-Sep-25 05:53  m  06 40 53.000634 +07 15 12.58757
 2018-Sep-25 05:54  m  06 40 53.059619 +07 15 12.64148
 2018-Sep-25 05:55  m  06 40 53.118587 +07 15 12.69549
 2018-Sep-25 05:56  m  06 40 53.177538 +07 15 12.74960
 2018-Sep-25 05:57  m  06 40 53.236471 +07 15 12.80380
 2018-Sep-25 05:58  m  06 40 53.295386 +07 15 12.85810
 2018-Sep-25 05:59  m  06 40 53.354283 +07 15 12.91250
 2018-Sep-25 06:00  m  06 40 53.413162 +07 15 12.96699
 2018-Sep-25 06:01  m  06 40 53.472023 +07 15 13.02157
 2018-Sep-25 06:02  m  06 40 53.530864 +07 15 13.07625
 2018-Sep-25 06:03  m  06 40 53.589687 +07 15 13.13103
 2018-Sep-25 06:04  m  06 40 53.648490 +07 15 13.18590
 2018-Sep-25 06:05  m  06 40 53.707275 +07 15 13.24087
 2018-Sep-25 06:06  m  06 40 53.766039 +07 15 13.29593
 2018-Sep-25 06:07  m  06 40 53.824784 +07 15 13.35108
 2018-Sep-25 06:08  m  06 40 53.883508 +07 15 13.40633
 2018-Sep-25 06:09  m  06 40 53.942212 +07 15 13.46168
 2018-Sep-25 06:10  m  06 40 54.000896 +07 15 13.51712
 2018-Sep-25 06:11  m  06 40 54.059559 +07 15 13.57265
 2018-Sep-25 06:12  m  06 40 54.118201 +07 15 13.62828
 2018-Sep-25 06:13  m  06 40 54.176822 +07 15 13.68400
 2018-Sep-25 06:14  m  06 40 54.235421 +07 15 13.73981
 2018-Sep-25 06:15  m  06 40 54.293998 +07 15 13.79572
 2018-Sep-25 06:16  m  06 40 54.352554 +07 15 13.85171
 2018-Sep-25 06:17  m  06 40 54.411088 +07 15 13.90781
 2018-Sep-25 06:18  m  06 40 54.469599 +07 15 13.96399
 2018-Sep-25 06:19  m  06 40 54.528088 +07 15 14.02027
 2018-Sep-25 06:20  m  06 40 54.586554 +07 15 14.07664
 2018-Sep-25 06:21  m  06 40 54.644997 +07 15 14.13310
 2018-Sep-25 06:22  m  06 40 54.703417 +07 15 14.18966
 2018-Sep-25 06:23  m  06 40 54.761813 +07 15 14.24630
 2018-Sep-25 06:24  m  06 40 54.820186 +07 15 14.30304
 2018-Sep-25 06:25  m  06 40 54.878535 +07 15 14.35987
 2018-Sep-25 06:26  m  06 40 54.936860 +07 15 14.41679
 2018-Sep-25 06:27  m  06 40 54.995160 +07 15 14.47380
